
# Worst residual: 244.32 km
# MJD 60832.000000 (2025 Jun  6  0:00)
ZTs0402 = A11lOKV = A11lIzn = A11ltQX
1 79886U 25000ZZN 25157.49919926  .00000000  00000-0  00000-0 0 26724
2 79886 069.2822 076.9389 6871160 018.0687 008.4500 00.83779261    00

# Worst residual: 344.81 km
# MJD 60833.000000 (2025 Jun  7  0:00)
ZTs0402 = A11lOKV = A11lIzn = A11ltQX
1 79886U 25000ZZN 25158.49919926  .00000000  00000-0  00000-0 0 26725
2 79886 069.2548 076.9108 6943786 019.3237 304.9442 00.83500703    05

# Worst residual: 224.99 km
# MJD 60834.000000 (2025 Jun  8  0:00)
ZTs0402 = A11lOKV = A11lIzn = A11ltQX
1 79886U 25000ZZN 25159.49919926  .00000000  00000-0  00000-0 0 26726
2 79886 069.2215 076.8848 6980814 020.2643 242.2737 00.82848190    06

# Worst residual: 146.49 km
# MJD 60835.000000 (2025 Jun  9  0:00)
ZTs0402 = A11lOKV = A11lIzn = A11ltQX
1 79886U 25000ZZN 25160.49919926  .00000000  00000-0  00000-0 0 26728
2 79886 069.1723 076.8482 7022188 021.5444 179.5076 00.82539478    02

# Worst residual: 182.12 km
# MJD 60836.000000 (2025 Jun 10  0:00)
ZTs0402 = A11lOKV = A11lIzn = A11ltQX
1 79886U 25000ZZN 25161.49919926  .00000000  00000-0  00000-0 0 26729
2 79886 069.1126 076.7996 7101631 022.7821 116.9119 00.82685925    03

# Worst residual: 279.89 km
# MJD 60837.000000 (2025 Jun 11  0:00)
ZTs0402 = A11lOKV = A11lIzn = A11ltQX
1 79886U 25000ZZN 25162.49919926  .00000000  00000-0  00000-0 0 26720
2 79886 069.0364 076.7335 7179181 023.7919 054.3001 00.83262176    02

# Worst residual: 235.13 km
# MJD 60838.000000 (2025 Jun 12  0:00)
ZTs0402 = A11lOKV = A11lIzn = A11ltQX
1 79886U 25000ZZN 25163.49919926  .00000000  00000-0  00000-0 0 26721
2 79886 068.8988 076.6268 7244589 024.9908 350.6807 00.83649675    00

# Worst residual: 321.86 km
# MJD 60839.000000 (2025 Jun 13  0:00)
ZTs0402 = A11lOKV = A11lIzn = A11ltQX
1 79886U 25000ZZN 25164.49919926  .00000000  00000-0  00000-0 0 26722
2 79886 068.7939 076.5790 7316174 025.9504 287.3372 00.83206803    02

# Worst residual: 164.94 km
# MJD 60840.000000 (2025 Jun 14  0:00)
ZTs0402 = A11lOKV = A11lIzn = A11ltQX
1 79886U 25000ZZN 25165.49919926  .00000000  00000-0  00000-0 0 26723
2 79886 068.6482 076.4977 7340100 026.8170 224.4459 00.82620139    04

# Worst residual: 118.99 km
# MJD 60841.000000 (2025 Jun 15  0:00)
ZTs0402 = A11lOKV = A11lIzn = A11ltQX
1 79886U 25000ZZN 25166.49919926  .00000000  00000-0  00000-0 0 26724
2 79886 068.5148 076.3998 7392825 027.9116 161.5498 00.82445456    08

# Worst residual: 224.79 km
# MJD 60842.000000 (2025 Jun 16  0:00)
ZTs0402 = A11lOKV = A11lIzn = A11ltQX
1 79886U 25000ZZN 25167.49919926  .00000000  00000-0  00000-0 0 26725
2 79886 068.3839 076.2834 7472864 028.8911 098.6347 00.82648414    08

# Worst residual: 270.66 km
# MJD 60843.000000 (2025 Jun 17  0:00)
ZTs0402 = A11lOKV = A11lIzn = A11ltQX
1 79886U 25000ZZN 25168.49919926  .00000000  00000-0  00000-0 0 26726
2 79886 068.2168 076.1337 7535783 029.7654 035.4185 00.83155239    01

# Worst residual: 312.09 km
# MJD 60844.000000 (2025 Jun 18  0:00)
ZTs0402 = A11lOKV = A11lIzn = A11ltQX
1 79886U 25000ZZN 25169.49919926  .00000000  00000-0  00000-0 0 26727
2 79886 067.9923 075.9677 7600087 030.7621 331.2435 00.83296402    09

# Worst residual: 358.17 km
# MJD 60845.000000 (2025 Jun 19  0:00)
ZTs0402 = A11lOKV = A11lIzn = A11ltQX
1 79886U 25000ZZN 25170.49919926  .00000000  00000-0  00000-0 0 26729
2 79886 067.7865 075.8372 7659886 031.5097 267.4008 00.82779134    03

# Worst residual: 157.72 km
# MJD 60846.000000 (2025 Jun 20  0:00)
ZTs0402 = A11lOKV = A11lIzn = A11ltQX
1 79886U 25000ZZN 25171.49919926  .00000000  00000-0  00000-0 0 26720
2 79886 067.5723 075.6823 7690839 032.3496 203.7115 00.82325112    03

# Worst residual: 121.76 km
# MJD 60847.000000 (2025 Jun 21  0:00)
ZTs0402 = A11lOKV = A11lIzn = A11ltQX
1 79886U 25000ZZN 25172.49919926  .00000000  00000-0  00000-0 0 26721
2 79886 067.3189 075.4747 7749415 033.3654 139.9659 00.82212459    04

# Worst residual: 252.02 km
# MJD 60848.000000 (2025 Jun 22  0:00)
ZTs0402 = A11lOKV = A11lIzn = A11ltQX
1 79886U 25000ZZN 25173.49919926  .00000000  00000-0  00000-0 0 26722
2 79886 067.1012 075.2416 7833614 034.2339 076.2464 00.82517506    01

# Worst residual: 217.80 km
# MJD 60849.000000 (2025 Jun 23  0:00)
ZTs0402 = A11lOKV = A11lIzn = A11ltQX
1 79886U 25000ZZN 25174.49919926  .00000000  00000-0  00000-0 0 26723
2 79886 066.7082 074.8932 7903417 035.1648 011.8103 00.83105726    06

# Worst residual: 342.76 km
# MJD 60850.000000 (2025 Jun 24  0:00)
ZTs0402 = A11lOKV = A11lIzn = A11ltQX
1 79886U 25000ZZN 25175.49919926  .00000000  00000-0  00000-0 0 26724
2 79886 066.2622 074.5320 7982522 036.0958 306.8565 00.82936985    04

# Worst residual: 176.24 km
# MJD 60851.000000 (2025 Jun 25  0:00)
ZTs0402 = A11lOKV = A11lIzn = A11ltQX
1 79886U 25000ZZN 25176.49919926  .00000000  00000-0  00000-0 0 26725
2 79886 065.8938 074.2777 8026478 036.7466 242.5847 00.82388268    07

# Worst residual: 177.20 km
# MJD 60852.000000 (2025 Jun 26  0:00)
ZTs0402 = A11lOKV = A11lIzn = A11ltQX
1 79886U 25000ZZN 25177.49919926  .00000000  00000-0  00000-0 0 26726
2 79886 065.4947 073.9220 8075878 037.6832 178.2971 00.82121132    05

# Worst residual: 181.21 km
# MJD 60853.000000 (2025 Jun 27  0:00)
ZTs0402 = A11lOKV = A11lIzn = A11ltQX
1 79886U 25000ZZN 25178.49919926  .00000000  00000-0  00000-0 0 26727
2 79886 065.1086 073.5197 8147282 038.6596 114.1277 00.82173382    04

# Worst residual: 195.53 km
# MJD 60854.000000 (2025 Jun 28  0:00)
ZTs0402 = A11lOKV = A11lIzn = A11ltQX
1 79886U 25000ZZN 25179.49919926  .00000000  00000-0  00000-0 0 26728
2 79886 064.6636 073.0124 8223606 039.4954 049.9454 00.82645714    01

# Worst residual: 244.05 km
# MJD 60855.000000 (2025 Jun 29  0:00)
ZTs0402 = A11lOKV = A11lIzn = A11ltQX
1 79886U 25000ZZN 25180.49919926  .00000000  00000-0  00000-0 0 26720
2 79886 064.0200 072.3764 8288925 040.4818 344.9160 00.82985017    05
